{"type": "FeatureCollection", "features": [{"type": "Feature", "properties": {"tile_id": 55, "pattern": 0.6488}, "geometry": {"type": "Point", "coordinates": [-76.553485, 3.411348]}}, {"type": "Feature", "properties": {"tile_id": 275, "pattern": 0.8672}, "geometry": {"type": "Point", "coordinates": [-76.486173, 3.462082]}}, {"type": "Feature", "properties": {"tile_id": 291, "pattern": 0.7561}, "geometry": {"type": "Point", "coordinates": [-76.513016, 3.35387]}}, {"type": "Feature", "properties": {"tile_id": 3, "pattern": 0.0}, "geometry": {"type": "Point", "coordinates": [-76.510509, 3.300043]}}, {"type": "Feature", "properties": {"tile_id": 113, "pattern": 0.5592}, "geometry": {"type": "Point", "coordinates": [-76.513725, 3.437039]}}, {"type": "Feature", "properties": {"tile_id": 141, "pattern": 0.3991}, "geometry": {"type": "Point", "coordinates": [-76.499258, 3.375441]}}, {"type": "Feature", "properties": {"tile_id": 126, "pattern": 0.5409}, "geometry": {"type": "Point", "coordinates": [-76.474012, 3.305527]}}, {"type": "Feature", "properties": {"tile_id": 169, "pattern": 0.2185}, "geometry": {"type": "Point", "coordinates": [-76.432865, 3.306735]}}, {"type": "Feature", "properties": {"tile_id": 152, "pattern": 0.7323}, "geometry": {"type": "Point", "coordinates": [-76.576218, 3.511543]}}, {"type": "Feature", "properties": {"tile_id": 180, "pattern": 0.4946}, "geometry": {"type": "Point", "coordinates": [-76.576397, 3.343189]}}, {"type": "Feature", "properties": {"tile_id": 187, "pattern": 0.9686}, "geometry": {"type": "Point", "coordinates": [-76.51656, 3.302441]}}, {"type": "Feature", "properties": {"tile_id": 11, "pattern": 0.1425}, "geometry": {"type": "Point", "coordinates": [-76.430662, 3.384637]}}, {"type": "Feature", "properties": {"tile_id": 237, "pattern": 0.1582}, "geometry": {"type": "Point", "coordinates": [-76.509939, 3.320244]}}, {"type": "Feature", "properties": {"tile_id": 146, "pattern": 0.5714}, "geometry": {"type": "Point", "coordinates": [-76.521896, 3.344471]}}, {"type": "Feature", "properties": {"tile_id": 4, "pattern": 0.0016}, "geometry": {"type": "Point", "coordinates": [-76.445478, 3.386136]}}, {"type": "Feature", "properties": {"tile_id": 34, "pattern": 0.4558}, "geometry": {"type": "Point", "coordinates": [-76.446892, 3.383652]}}, {"type": "Feature", "properties": {"tile_id": 26, "pattern": 0.2757}, "geometry": {"type": "Point", "coordinates": [-76.441241, 3.377948]}}, {"type": "Feature", "properties": {"tile_id": 12, "pattern": 0.1368}, "geometry": {"type": "Point", "coordinates": [-76.431468, 3.384643]}}, {"type": "Feature", "properties": {"tile_id": 130, "pattern": 0.8415}, "geometry": {"type": "Point", "coordinates": [-76.450264, 3.427713]}}, {"type": "Feature", "properties": {"tile_id": 249, "pattern": 0.1021}, "geometry": {"type": "Point", "coordinates": [-76.526276, 3.510944]}}, {"type": "Feature", "properties": {"tile_id": 131, "pattern": 0.8431}, "geometry": {"type": "Point", "coordinates": [-76.503471, 3.428738]}}, {"type": "Feature", "properties": {"tile_id": 127, "pattern": 0.5426}, "geometry": {"type": "Point", "coordinates": [-76.473734, 3.303311]}}, {"type": "Feature", "properties": {"tile_id": 244, "pattern": 0.1004}, "geometry": {"type": "Point", "coordinates": [-76.441798, 3.321888]}}, {"type": "Feature", "properties": {"tile_id": 168, "pattern": 0.2128}, "geometry": {"type": "Point", "coordinates": [-76.432911, 3.306768]}}, {"type": "Feature", "properties": {"tile_id": 147, "pattern": 0.574}, "geometry": {"type": "Point", "coordinates": [-76.520859, 3.34404]}}, {"type": "Feature", "properties": {"tile_id": 271, "pattern": 0.9177}, "geometry": {"type": "Point", "coordinates": [-76.440453, 3.37942]}}, {"type": "Feature", "properties": {"tile_id": 112, "pattern": 0.5612}, "geometry": {"type": "Point", "coordinates": [-76.513588, 3.43718]}}, {"type": "Feature", "properties": {"tile_id": 214, "pattern": 0.5473}, "geometry": {"type": "Point", "coordinates": [-76.458438, 3.501961]}}, {"type": "Feature", "properties": {"tile_id": 140, "pattern": 0.3979}, "geometry": {"type": "Point", "coordinates": [-76.499397, 3.375385]}}, {"type": "Feature", "properties": {"tile_id": 281, "pattern": 0.9309}, "geometry": {"type": "Point", "coordinates": [-76.40498, 3.490163]}}, {"type": "Feature", "properties": {"tile_id": 100, "pattern": 0.2192}, "geometry": {"type": "Point", "coordinates": [-76.454453, 3.45723]}}, {"type": "Feature", "properties": {"tile_id": 153, "pattern": 0.7274}, "geometry": {"type": "Point", "coordinates": [-76.576218, 3.511543]}}, {"type": "Feature", "properties": {"tile_id": 33, "pattern": 0.4533}, "geometry": {"type": "Point", "coordinates": [-76.446918, 3.383596]}}, {"type": "Feature", "properties": {"tile_id": 217, "pattern": 0.5833}, "geometry": {"type": "Point", "coordinates": [-76.44073, 3.471772]}}, {"type": "Feature", "properties": {"tile_id": 189, "pattern": 1.0}, "geometry": {"type": "Point", "coordinates": [-76.580746, 3.377709]}}]}