{"type":"FeatureCollection","features":[{"type":"Feature","id":"obs_aire_estaciones_monitoreo.1","geometry":{"type":"Point","coordinates":[-76.50653649,3.45731978]},"geometry_name":"the_geom","properties":{"objectid":1,"no":2,"tipo":"Contme","nombre":"Base Aerea Marco Fidel Suarez","cod":"BA","comuna":"7","barrio":"Parque de la Caña","este":1063458.73,"norte":874071.58,"altitud":961,"latitud":3.457317346,"longitud":-76.5065}},{"type":"Feature","id":"obs_aire_estaciones_monitoreo.2","geometry":{"type":"Point","coordinates":[-76.51908184,3.4475941]},"geometry_name":"the_geom","properties":{"objectid":2,"no":6,"tipo":"Contme","nombre":"ERA - Obrero","cod":"ERA","comuna":"9","barrio":"El obrero","este":1062064.71,"norte":872996.12,"altitud":971,"latitud":3.447593199,"longitud":-76.5191}},{"type":"Feature","id":"obs_aire_estaciones_monitoreo.3","geometry":{"type":"Point","coordinates":[-76.54961789,3.41545841]},"geometry_name":"the_geom","properties":{"objectid":3,"no":3,"tipo":"Cont","nombre":"Cañaveralejo","cod":"CA","comuna":"19","barrio":"El Lido","este":1058671.46,"norte":869442.66,"altitud":974,"latitud":3.415462585,"longitud":-76.5496}},{"type":"Feature","id":"obs_aire_estaciones_monitoreo.4","geometry":{"type":"Point","coordinates":[-76.53372474,3.37796681]},"geometry_name":"the_geom","properties":{"objectid":4,"no":7,"tipo":"Cont","nombre":"Universidad del Valle","cod":"UV","comuna":"17","barrio":"Ciudad Universitaria","este":1060437.49,"norte":865296.87,"altitud":976,"latitud":3.377976931,"longitud":-76.5337}},{"type":"Feature","id":"obs_aire_estaciones_monitoreo.5","geometry":{"type":"Point","coordinates":[-76.53125401,3.30449556]},"geometry_name":"the_geom","properties":{"objectid":5,"no":5,"tipo":"Contme","nombre":"Pance","cod":"PA","comuna":"53","barrio":"La Viga","este":1060711.97,"norte":857172.55,"altitud":978,"latitud":3.304517426,"longitud":-76.5313}},{"type":"Feature","id":"obs_aire_estaciones_monitoreo.6","geometry":{"type":"Point","coordinates":[-76.49495633,3.41717874]},"geometry_name":"the_geom","properties":{"objectid":6,"no":0,"tipo":"Contme_M","nombre":"Estación Transitoria  EDB Navarro","cod":"ET","comuna":"13","barrio":"El Poblado","este":1064745.61,"norte":869632.88,"altitud":957,"latitud":3.417182642,"longitud":-76.495}},{"type":"Feature","id":"obs_aire_estaciones_monitoreo.7","geometry":{"type":"Point","coordinates":[-76.46657547,3.42825808]},"geometry_name":"the_geom","properties":{"objectid":7,"no":4,"tipo":"Cont","nombre":"Compartir","cod":"CO","comuna":"21","barrio":"Ciudadela del rio","este":1067899.31,"norte":870858.14,"altitud":951,"latitud":3.428260226,"longitud":-76.4666}},{"type":"Feature","id":"obs_aire_estaciones_monitoreo.8","geometry":{"type":"Point","coordinates":[-76.51805771,3.48822548]},"geometry_name":"the_geom","properties":{"objectid":8,"no":1,"tipo":"Contme","nombre":"La Flora","cod":"FLO","comuna":"2","barrio":"Urbanizacion La Flora","este":1062178.5,"norte":877489.07,"altitud":967,"latitud":3.488218184,"longitud":-76.5181}},{"type":"Feature","id":"obs_aire_estaciones_monitoreo.9","geometry":{"type":"Point","coordinates":[-76.53097834,3.45551754]},"geometry_name":"the_geom","properties":{"objectid":9,"no":8,"tipo":"Cont","nombre":"La Ermita","cod":"ER","comuna":"3","barrio":"San Pedro","este":1060742.79,"norte":873872.28,"altitud":986,"latitud":0E-11,"longitud":0E-11}}],"totalFeatures":9,"numberMatched":9,"numberReturned":9,"timeStamp":"2026-05-23T16:04:45.556Z","crs":{"type":"name","properties":{"name":"urn:ogc:def:crs:EPSG::4326"}}}